{
  "type": "FeatureCollection",
  "features": [
    {
      "type": "Feature",
      "properties": {
        "norad_id": 30022,
        "name": "FENGYUN 1C DEB",
        "group": "fengyun-1c-debris",
        "lat": -37.84998270386878,
        "lon": 14.471679116445546,
        "alt_km": 780.3205061553253,
        "timestamp": "2025-12-19T06:59:44.181767+00:00",
        "meta_object_name": "FENGYUN 1C DEB",
        "meta_object_id": "1999-025MX",
        "meta_epoch": "2025-12-18T11:42:06.055776",
        "meta_mean_motion": 14.23134555,
        "meta_eccentricity": 0.00665893,
        "meta_inclination": 99.0718,
        "meta_ra_of_asc_node": 200.7756,
        "meta_arg_of_pericenter": 252.4307,
        "meta_mean_anomaly": 169.913,
        "meta_ephemeris_type": 0,
        "meta_classification_type": "U",
        "meta_norad_cat_id": 30022,
        "meta_element_set_no": 999,
        "meta_rev_at_epoch": 98274,
        "meta_bstar": 6.2970767e-05,
        "meta_mean_motion_dot": 9.8e-07,
        "meta_mean_motion_ddot": 0,
        "tle_line1": "1 30022U 99025MX  25352.48757009  .00000098  00000+0  62971-4 0  9994",
        "tle_line2": "2 30022  99.0718 200.7756 0066589 252.4307 169.9130 14.23134555982749"
      },
      "geometry": {
        "type": "Point",
        "coordinates": [
          14.471679116445546,
          -37.84998270386878
        ]
      }
    },
    {
      "type": "Feature",
      "properties": {
        "norad_id": 30023,
        "name": "FENGYUN 1C DEB",
        "group": "fengyun-1c-debris",
        "lat": -61.89216958944343,
        "lon": -10.763870772764164,
        "alt_km": 892.5125688608023,
        "timestamp": "2025-12-19T06:59:44.181777+00:00",
        "meta_object_name": "FENGYUN 1C DEB",
        "meta_object_id": "1999-025MY",
        "meta_epoch": "2025-12-18T13:07:40.575360",
        "meta_mean_motion": 14.11871228,
        "meta_eccentricity": 0.00471102,
        "meta_inclination": 99.2936,
        "meta_ra_of_asc_node": 186.3176,
        "meta_arg_of_pericenter": 47.5426,
        "meta_mean_anomaly": 13.9723,
        "meta_ephemeris_type": 0,
        "meta_classification_type": "U",
        "meta_norad_cat_id": 30023,
        "meta_element_set_no": 999,
        "meta_rev_at_epoch": 97278,
        "meta_bstar": 0.00034169453,
        "meta_mean_motion_dot": 5.83e-06,
        "meta_mean_motion_ddot": 0,
        "tle_line1": "1 30023U 99025MY  25352.54699740  .00000583  00000+0  34169-3 0  9995",
        "tle_line2": "2 30023  99.2936 186.3176 0047110  47.5426  13.9723 14.11871228972784"
      },
      "geometry": {
        "type": "Point",
        "coordinates": [
          -10.763870772764164,
          -61.89216958944343
        ]
      }
    },
    {
      "type": "Feature",
      "properties": {
        "norad_id": 30028,
        "name": "FENGYUN 1C DEB",
        "group": "fengyun-1c-debris",
        "lat": 72.31830053013242,
        "lon": -167.9452786952621,
        "alt_km": 724.8010276957684,
        "timestamp": "2025-12-19T06:59:44.181787+00:00",
        "meta_object_name": "FENGYUN 1C DEB",
        "meta_object_id": "1999-025ND",
        "meta_epoch": "2025-12-18T22:33:13.429728",
        "meta_mean_motion": 14.55511096,
        "meta_eccentricity": 0.01744373,
        "meta_inclination": 98.1452,
        "meta_ra_of_asc_node": 345.015,
        "meta_arg_of_pericenter": 209.0083,
        "meta_mean_anomaly": 216.6701,
        "meta_ephemeris_type": 0,
        "meta_classification_type": "U",
        "meta_norad_cat_id": 30028,
        "meta_element_set_no": 999,
        "meta_rev_at_epoch": 99812,
        "meta_bstar": 0.00025647807,
        "meta_mean_motion_dot": 1.316e-05,
        "meta_mean_motion_ddot": 0,
        "tle_line1": "1 30028U 99025ND  25352.93973877  .00001316  00000+0  25648-3 0  9996",
        "tle_line2": "2 30028  98.1452 345.0150 0174437 209.0083 216.6701 14.55511096998129"
      },
      "geometry": {
        "type": "Point",
        "coordinates": [
          -167.9452786952621,
          72.31830053013242
        ]
      }
    },
    {
      "type": "Feature",
      "properties": {
        "norad_id": 30035,
        "name": "FENGYUN 1C DEB",
        "group": "fengyun-1c-debris",
        "lat": -22.33554116776424,
        "lon": 84.75934212469241,
        "alt_km": 851.0051103933474,
        "timestamp": "2025-12-19T06:59:44.181798+00:00",
        "meta_object_name": "FENGYUN 1C DEB",
        "meta_object_id": "1999-025NL",
        "meta_epoch": "2025-12-18T18:40:03.751680",
        "meta_mean_motion": 14.36977731,
        "meta_eccentricity": 0.01154123,
        "meta_inclination": 99.2712,
        "meta_ra_of_asc_node": 268.0544,
        "meta_arg_of_pericenter": 44.4715,
        "meta_mean_anomaly": 21.8562,
        "meta_ephemeris_type": 0,
        "meta_classification_type": "U",
        "meta_norad_cat_id": 30035,
        "meta_element_set_no": 999,
        "meta_rev_at_epoch": 99210,
        "meta_bstar": 6.0556511e-05,
        "meta_mean_motion_dot": 1.41e-06,
        "meta_mean_motion_ddot": 0,
        "tle_line1": "1 30035U 99025NL  25352.77782120  .00000141  00000+0  60557-4 0  9999",
        "tle_line2": "2 30035  99.2712 268.0544 0115412  44.4715  21.8562 14.36977731992104"
      },
      "geometry": {
        "type": "Point",
        "coordinates": [
          84.75934212469241,
          -22.33554116776424
        ]
      }
    },
    {
      "type": "Feature",
      "properties": {
        "norad_id": 30036,
        "name": "FENGYUN 1C DEB",
        "group": "fengyun-1c-debris",
        "lat": 30.956414409154387,
        "lon": -154.78763216761794,
        "alt_km": 630.2331489263297,
        "timestamp": "2025-12-19T06:59:44.181808+00:00",
        "meta_object_name": "FENGYUN 1C DEB",
        "meta_object_id": "1999-025NM",
        "meta_epoch": "2025-12-18T14:18:31.075200",
        "meta_mean_motion": 14.46200579,
        "meta_eccentricity": 0.01902453,
        "meta_inclination": 98.2523,
        "meta_ra_of_asc_node": 19.5411,
        "meta_arg_of_pericenter": 189.7662,
        "meta_mean_anomaly": 302.3879,
        "meta_ephemeris_type": 0,
        "meta_classification_type": "U",
        "meta_norad_cat_id": 30036,
        "meta_element_set_no": 999,
        "meta_rev_at_epoch": 99261,
        "meta_bstar": 0.00029316375,
        "meta_mean_motion_dot": 1.261e-05,
        "meta_mean_motion_ddot": 0,
        "tle_line1": "1 30036U 99025NM  25352.59619300  .00001261  00000+0  29316-3 0  9990",
        "tle_line2": "2 30036  98.2523  19.5411 0190245 189.7662 302.3879 14.46200579992611"
      },
      "geometry": {
        "type": "Point",
        "coordinates": [
          -154.78763216761794,
          30.956414409154387
        ]
      }
    },
    {
      "type": "Feature",
      "properties": {
        "norad_id": 30037,
        "name": "FENGYUN 1C DEB",
        "group": "fengyun-1c-debris",
        "lat": -75.9288061528858,
        "lon": 112.7712821274577,
        "alt_km": 875.4998580244346,
        "timestamp": "2025-12-19T06:59:44.181818+00:00",
        "meta_object_name": "FENGYUN 1C DEB",
        "meta_object_id": "1999-025NN",
        "meta_epoch": "2025-12-18T21:33:13.336128",
        "meta_mean_motion": 14.34126822,
        "meta_eccentricity": 0.01741724,
        "meta_inclination": 98.3839,
        "meta_ra_of_asc_node": 328.4314,
        "meta_arg_of_pericenter": 36.8512,
        "meta_mean_anomaly": 353.1973,
        "meta_ephemeris_type": 0,
        "meta_classification_type": "U",
        "meta_norad_cat_id": 30037,
        "meta_element_set_no": 999,
        "meta_rev_at_epoch": 98876,
        "meta_bstar": 0.00017930861,
        "meta_mean_motion_dot": 5.48e-06,
        "meta_mean_motion_ddot": 0,
        "tle_line1": "1 30037U 99025NN  25352.89807102  .00000548  00000+0  17931-3 0  9990",
        "tle_line2": "2 30037  98.3839 328.4314 0174172  36.8512 353.1973 14.34126822988769"
      },
      "geometry": {
        "type": "Point",
        "coordinates": [
          112.7712821274577,
          -75.9288061528858
        ]
      }
    },
    {
      "type": "Feature",
      "properties": {
        "norad_id": 30038,
        "name": "FENGYUN 1C DEB",
        "group": "fengyun-1c-debris",
        "lat": 50.57834418145509,
        "lon": -29.544779867251933,
        "alt_km": 598.2428474904336,
        "timestamp": "2025-12-19T06:59:44.181828+00:00",
        "meta_object_name": "FENGYUN 1C DEB",
        "meta_object_id": "1999-025NP",
        "meta_epoch": "2025-12-18T22:39:58.175712",
        "meta_mean_motion": 14.39307638,
        "meta_eccentricity": 0.02580007,
        "meta_inclination": 98.3686,
        "meta_ra_of_asc_node": 340.4316,
        "meta_arg_of_pericenter": 84.2381,
        "meta_mean_anomaly": 331.4464,
        "meta_ephemeris_type": 0,
        "meta_classification_type": "U",
        "meta_norad_cat_id": 30038,
        "meta_element_set_no": 999,
        "meta_rev_at_epoch": 98980,
        "meta_bstar": 0.00019305094,
        "meta_mean_motion_dot": 8.35e-06,
        "meta_mean_motion_ddot": 0,
        "tle_line1": "1 30038U 99025NP  25352.94442333  .00000835  00000+0  19305-3 0  9994",
        "tle_line2": "2 30038  98.3686 340.4316 0258000  84.2381 331.4464 14.39307638989801"
      },
      "geometry": {
        "type": "Point",
        "coordinates": [
          -29.544779867251933,
          50.57834418145509
        ]
      }
    }
  ]
}